ORBITAL FACTORY 2 (OF-2)
1 45113U 19071C   22215.21864154  .00015615  00000+0  30684-3 0  9996
2 45113  51.6366 188.9083 0009737 353.9805   6.1064 15.47431171140612
M2 PATHFINDER           
1 45727U 20037E   22214.49129670  .00000500  00000+0  54674-4 0  9990
2 45727  97.7361  29.1183 0011378 241.2833 118.7279 14.92120945113699
NETSAT-4                
1 46504U 20068U   22214.76240238  .00001026  00000+0  79420-4 0  9992
2 46504  97.7285 154.4726 0012799 162.4226 197.7445 15.03638077101008
NETSAT-3                
1 46505U 20068V   22214.51291174  .00001828  00000+0  13817-3 0  9998
2 46505  97.7259 154.1387 0011052 172.1308 188.0074 15.03587504100974
NETSAT-1                
1 46506U 20068W   22214.46440779  .00000192  00000+0  18612-4 0  9992
2 46506  97.7276 154.0176 0008012 180.5113 179.6088 15.03515590100964
NETSAT-2                
1 46507U 20068X   22214.80726621  .00000454  00000+0  37856-4 0  9996
2 46507  97.7291 154.3531 0007694 181.9440 178.1755 15.03505472100966
SAI-1 NANOCONNECT-2     
1 47701U 21015C   22215.20101534  .00005280  00000+0  19500-3 0  9998
2 47701  97.4210 291.9263 0009427 290.4706  69.5521 15.28144435 79355
BEESAT-6                
1 47957U 21022AB  22214.68397980  .00002690  00000+0  17292-3 0  9990
2 47957  97.5257 113.3937 0020789 354.0108  35.7242 15.09101303 74774
SMOG-1                  
1 47964U 21022AJ  22214.95111155  .00003067  00000+0  18931-3 0  9996
2 47964  97.5250 114.7896 0017735 342.1969  17.8637 15.10533391 73905
MMSATS-1                
1 47976U 98067SJ  22215.23545316  .00012869  00000+0  15651-3 0  9990
2 47976  51.6403  89.6691 0002255 149.4592 312.5123 15.60931203 77563
BCCSAT-1                
1 48041U 21022AK  22214.43257335  .00002075  00000+0  13268-3 0  9993
2 48041  97.5257 113.8456 0014421 343.7939  16.2827 15.09644527 73775
BEESAT-5                
1 48083U 21022AM  22214.67223650  .00003073  00000+0  19605-3 0  9998
2 48083  97.5217 113.3847 0020604 353.8717  36.8075 15.09272632 73904
BEESAT-7                
1 48084U 21022AN  22214.94822978  .00002712  00000+0  17398-3 0  9993
2 48084  97.5243 113.6609 0020427 353.0409  65.3589 15.09169457 73532
BEESAT-8                
1 48085U 21022AP  22214.95112590  .00002441  00000+0  15739-3 0  9993
2 48085  97.5251 113.6593 0020284 353.2999  65.8442 15.09083686 74095
RAMSAT                  
1 48850U 98067SL  22214.50611871  .00068754  00000+0  40461-3 0  9992
2 48850  51.6354  81.2013 0002564 206.0357 154.0515 15.77567364 64581
BD-28                   
1 48867U 98067SN  22215.02704992  .00129131  00000+0  52280-3 0  9994
2 48867  51.6259  74.0507 0002837 228.0467 132.0295 15.85392973 63479
BINAR-1                 
1 49272U 98067SR  22214.50946495  .00087681  00000+0  48616-3 0  9994
2 49272  51.6312  84.9268 0003861 149.3562 210.7665 15.78796659 46920
MAYA-3                  
1 49273U 98067SS  22213.99342808  .01862611  11849-4  89573-3 0  9995
2 49273  51.6181  76.7650 0012053 259.3099 100.6562 16.20366060 46985
MAYA-4                  
1 49274U 98067ST  22214.52036656  .00906023  48371-3  88888-3 0  9999
2 49274  51.6217  75.0761 0009515 254.6038 105.3926 16.10749378 47052
CUAVA-1                 
1 49275U 98067SU  22215.11853388  .00217287  28456-4  69281-3 0  9991
2 49275  51.6293  76.7293 0004463 210.2787 236.4693 15.90684299 47033
BEIJING 1               
1 28890U 05043A   22215.09902900  .00000027  00000+0  14842-4 0  9991
2 28890  98.1247 336.6593 0015782  32.8276 327.3897 14.61473028893955
HJ-1A                   
1 33320U 08041A   22215.07022685  .00000189  00000+0  32966-4 0  9993
2 33320  97.6746 245.9371 0022578  80.8448 279.5325 14.77882254749279
HJ-1B                   
1 33321U 08041B   22215.29025377  .00000417  00000+0  64277-4 0  9993
2 33321  97.6916 249.8061 0035778  97.5031 263.0241 14.77805641749301
YAOGAN 4                
1 33446U 08061A   22215.10990175  .00000192  00000+0  33926-4 0  9997
2 33446  97.8179 153.8233 0015900 348.5877  11.4970 14.77422076736485
DEIMOS-1                
1 35681U 09041A   22215.09368493  .00000126  00000+0  27363-4 0  9994
2 35681  97.7099  63.7658 0002940  81.4865 278.6680 14.72082815698635
UK-DMC 2                
1 35683U 09041C   22215.20755257  .00000182  00000+0  36730-4 0  9997
2 35683  97.7005  25.7588 0001818  91.4756 268.6651 14.71453009698382
RISAT 1                 
1 38248U 12017A   22214.98717999  .00001420  00000+0  85981-4 0  9997
2 38248  97.5524 225.8515 0005710  97.3697 262.8182 15.12200636565877
DMC3-FM1                
1 40715U 15032A   22215.25183600  .00000160  00000+0  26676-4 0  9992
2 40715  97.8415 101.1392 0006386  20.2921 339.8552 14.82158310380222
DMC3-FM2                
1 40716U 15032B   22215.20707301  .00000171  00000+0  28036-4 0  9992
2 40716  97.8456 101.7616 0008443  19.8609 340.2935 14.82150441380224
DMC3-FM3                
1 40717U 15032C   22215.22929275  .00000177  00000+0  28828-4 0  9996
2 40717  97.8493 102.7141 0010348  16.2460 343.9079 14.82178417380225
NOAA 15                 
1 25338U 98030A   22215.14563707  .00000091  00000+0  56378-4 0  9998
2 25338  98.6417 244.0651 0010885 155.8656 204.3036 14.26157050259924
DMSP 5D-3 F15 (USA 147) 
1 25991U 99067A   22214.94124426  .00000060  00000+0  53273-4 0  9999
2 25991  99.0544 207.3155 0011095  59.9524 307.8036 14.16557822170356
METEOSAT-8 (MSG-1)      
1 27509U 02040B   22214.21871748  .00000139  00000+0  00000+0 0  9999
2 27509   8.1183  50.3999 0000106  60.4738 320.1401  1.00278072 73071
DMSP 5D-3 F16 (USA 172) 
1 28054U 03048A   22215.16860338 -.00000055  00000+0 -51906-5 0  9998
2 28054  98.9912 206.2240 0007236 177.1070 252.9846 14.13676949969624
NOAA 18                 
1 28654U 05018A   22215.09117577  .00000099  00000+0  77364-4 0  9996
2 28654  98.9470 285.4860 0014091 195.5943 164.4797 14.12760099886658
METEOSAT-9 (MSG-2)      
1 28912U 05049B   22214.21950228  .00000132  00000+0  00000+0 0  9994
2 28912   6.1176  66.0061 0000776 330.2919  39.1439  1.00271739 60859
EWS-G1 (GOES 13)        
1 29155U 06018A   22214.43788462  .00000044  00000+0  00000+0 0  9996
2 29155   0.7075  96.7182 0004914  93.1739 340.0043  1.00274393 29190
DMSP 5D-3 F17 (USA 191) 
1 29522U 06050A   22215.13006914 -.00000025  00000+0  98205-5 0  9993
2 29522  98.7662 229.3089 0010820 124.8378 235.3814 14.14104539812501
FENGYUN 3A              
1 32958U 08026A   22215.15573426  .00000023  00000+0  31445-4 0  9993
2 32958  98.5054 175.8866 0007606 245.6449 114.3933 14.18730885734951
FENGYUN 2E              
1 33463U 08066A   22214.65821933 -.00000200  00000+0  00000+0 0  9998
2 33463   6.0047  65.0489 0002986  18.1748 191.7299  1.00271538 49901
NOAA 19                 
1 33591U 09005A   22215.16860089  .00000104  00000+0  81077-4 0  9996
2 33591  99.1451 250.2801 0014765  59.5238 300.7389 14.12594506695046
GOES 14                 
1 35491U 09033A   22215.24879069 -.00000085  00000+0  00000+0 0  9996
2 35491   0.4234  94.7807 0014030 116.3541  85.6633  1.00272466 47977
METEOR-M 1              
1 35865U 09049A   22215.17641544  .00000019  00000+0  27577-4 0  9994
2 35865  98.5312 184.1469 0003510  89.5660 270.5920 14.22347630668336
DMSP 5D-3 F18 (USA 210) 
1 35951U 09057A   22215.19336089  .00000148  00000+0  10153-3 0  9990
2 35951  98.7248 193.4339 0010310 319.3255  40.7147 14.13534107659718
GOES 15                 
1 36411U 10008A   22214.20396792  .00000058  00000+0  00000+0 0  9994
2 36411   0.3931 100.0609 0002445  45.1247 111.0318  1.00280672 45489
COMS 1                  
1 36744U 10032A   22214.88171255 -.00000339  00000+0  00000+0 0  9992
2 36744   1.1889  92.3126 0000828  31.0386 273.6452  1.00270958 36904
FENGYUN 3B              
1 37214U 10059A   22215.18653706  .00000000  00000+0  24086-4 0  9993
2 37214  99.0921 221.9891 0021502 221.4310 138.5234 14.14261352607563
SUOMI NPP               
1 37849U 11061A   22215.15348447  .00000024  00000+0  31992-4 0  9991
2 37849  98.7331 153.0609 0001210  89.3017  25.1465 14.19536216557817
FENGYUN 2F              
1 38049U 12002A   22213.58339491 -.00000353  00000+0  00000+0 0  9991
2 38049   3.8970  79.3616 0000239  44.8824 147.8590  1.00281343 38691
METEOSAT-10 (MSG-3)     
1 38552U 12035B   22214.85808124  .00000066  00000+0  00000+0 0  9991
2 38552   1.5883  43.7339 0000871  28.1084 197.8199  1.00266698 36672
METOP-B                 
1 38771U 12049A   22215.14657966  .00000020  00000+0  28880-4 0  9999
2 38771  98.6928 274.2017 0000448  85.5577 301.8158 14.21499135512368
FENGYUN 3C              
1 39260U 13052A   22215.19173491  .00000029  00000+0  35581-4 0  9994
2 39260  98.4518 240.9350 0011861 135.4523 224.7607 14.15934497458530
METEOR-M 2              
1 40069U 14037A   22214.80523338 -.00000011  00000+0  13893-4 0  9997
2 40069  98.4306 230.4929 0005500 176.0377 184.0842 14.20714468418446
HIMAWARI-8              
1 40267U 14060A   22214.87202299 -.00000269  00000+0  00000+0 0  9996
2 40267   0.0411 249.9296 0000966 226.1111 289.9808  1.00272686 28571
FENGYUN 2G              
1 40367U 14090A   22214.80436582 -.00000298  00000+0  00000+0 0  9999
2 40367   2.0470  89.0515 0000862 286.8988 324.7840  1.00272994 27818
METEOSAT-11 (MSG-4)     
1 40732U 15034A   22214.85616285  .00000001  00000+0  00000+0 0  9990
2 40732   0.3815  66.1979 0001430  29.4086 164.0126  1.00265303 25849
ELEKTRO-L 2             
1 41105U 15074A   22214.92505111 -.00000110  00000+0  00000+0 0  9994
2 41105   3.1017  87.6213 0002136  80.3613 102.0430  1.00273382 24333
HIMAWARI-9              
1 41836U 16064A   22214.87202299 -.00000269  00000+0  00000+0 0  9995
2 41836   0.0254 273.8391 0000717 234.7383 257.5460  1.00270399 21006
GOES 16                 
1 41866U 16071A   22214.76948569 -.00000242  00000+0  00000+0 0  9992
2 41866   0.0581 256.2687 0000439 271.2333 345.6443  1.00271892 20937
